SENTINEL-6              
1 46984U 20086A   24009.87866239 -.00000048  00000+0  58499-4 0  9992
2 46984  66.0395 182.1544 0007691 269.6958  90.3175 12.80930072146429
